ONEWEB-0199             
1 48234U 21031AA  25325.45990662  .00000180  00000+0  45069-3 0  9991
2 48234  87.8986 331.0759 0001890  96.3884 263.7461 13.14503285220974
ONEWEB-0203             
1 48235U 21031AB  25325.45037911  .00000026  00000+0  35497-4 0  9995
2 48235  87.8984 331.0789 0002093  89.6909 270.4461 13.14501888220988
ONEWEB-0197             
1 48236U 21031AC  25325.57711287 -.00000171  00000+0 -49472-3 0  9994
2 48236  87.8984 331.0519 0001487  94.7554 265.3746 13.14502376220914
ONEWEB-0194             
1 48237U 21031AD  25325.55662758  .00000189  00000+0  47613-3 0  9993
2 48237  87.8987 331.0731 0002015  95.8913 264.2446 13.14501170221088
ONEWEB-0193             
1 48238U 21031AE  25325.57249609 -.00000059  00000+0 -19231-3 0  9995
2 48238  87.8985 331.0653 0002110 101.0576 259.0791 13.14502956221034
ONEWEB-0191             
1 48239U 21031AF  25325.58359487 -.00000179  00000+0 -51756-3 0  9994
2 48239  87.8993 331.0512 0001825  92.5181 267.6158 13.14501815220894
ONEWEB-0195             
1 48240U 21031AG  25325.56059323  .00000201  00000+0  50752-3 0  9999
2 48240  87.8997 331.0511 0001943  79.5639 280.5710 13.14504663220873
ONEWEB-0201             
1 48241U 21031AH  25325.54883604  .00000234  00000+0  59667-3 0  9995
2 48241  87.8980 331.0966 0001571  85.4681 274.6628 13.14500898221105
